IRIDIUM 116             
1 43072U 17083C   25171.53499346 -.00000069  00000+0 -31608-4 0  9992
2 43072  86.3970 113.2112 0002082  77.4181 282.7248 14.34219404392337
IRIDIUM 130             
1 43073U 17083D   25171.57304659  .00000190  00000+0  60657-4 0  9998
2 43073  86.3975 113.4350 0002411  75.3712 284.7751 14.34218130392282
IRIDIUM 151             
1 43074U 17083E   25171.54767555  .00000081  00000+0  21845-4 0  9999
2 43074  86.3971 113.2554 0002161  79.2842 280.8597 14.34217720392304
IRIDIUM 134             
1 43075U 17083F   25171.23688848 -.00000003  00000+0 -81866-5 0  9999
2 43075  86.3970 113.3882 0002307  77.2083 282.9370 14.34217621392229
IRIDIUM 137             
1 43076U 17083G   25171.24957261  .00000064  00000+0  15714-4 0  9992
2 43076  86.3973 113.4683 0001657  76.2013 283.9367 14.34217905392291
IRIDIUM 141             
1 43077U 17083H   25171.24323080  .00000147  00000+0  45371-4 0  9993
2 43077  86.3967 113.3223 0002422  89.2980 270.8493 14.34217167392297
IRIDIUM 153             
1 43078U 17083J   25171.26518932  .00000246  00000+0  80792-4 0  9994
2 43078  86.3962  81.7809 0002616  89.9759 270.1736 14.34219690393407
IRIDIUM 131             
1 43079U 17083K   25171.30031443  .00000003  00000+0 -60227-5 0  9991
2 43079  86.3975 113.4604 0002090  88.3400 271.8035 14.34217567392231
